{"type": "FeatureCollection", "features": [ {"type": "Feature", "properties": {"norad_id": 29782, "name": "FENGYUN 1C DEB", "group": "fengyun-1c-debris", "lat": 23.44971964298649, "lon": 44.66811978968267, "alt_km": 889.9743114807479, "timestamp": "2025-12-20T22:39:10.898173+00:00", "meta": {"OBJECT_NAME": "FENGYUN 1C DEB", "OBJECT_ID": "1999-025BY", "EPOCH": "2025-12-20T10:42:47.307168", "MEAN_MOTION": 14.11696581, "ECCENTRICITY": 0.00557376, "INCLINATION": 99.0998, "RA_OF_ASC_NODE": 48.1502, "ARG_OF_PERICENTER": 181.9145, "MEAN_ANOMALY": 195.2801, "EPHEMERIS_TYPE": 0, "CLASSIFICATION_TYPE": "U", "NORAD_CAT_ID": 29782, "ELEMENT_SET_NO": 999, "REV_AT_EPOCH": 96780, "BSTAR": 0.0010747963, "MEAN_MOTION_DOT": 1.94e-05, "MEAN_MOTION_DDOT": 0}, "tle": {"line1": "1 29782U 99025BY  25354.44638087  .00001940  00000+0  10748-2 0  9997", "line2": "2 29782  99.0998  48.1502 0055737 181.9145 195.2801 14.11696581967808"}}, "geometry": {"type": "Point", "coordinates": [44.66811978968267, 23.44971964298649]}}, {"type": "Feature", "properties": {"norad_id": 29784, "name": "FENGYUN 1C DEB", "group": "fengyun-1c-debris", "lat": 15.00903554399538, "lon": -88.44574124177511, "alt_km": 799.1724430585609, "timestamp": "2025-12-20T22:39:10.898183+00:00", "meta": {"OBJECT_NAME": "FENGYUN 1C DEB", "OBJECT_ID": "1999-025CA", "EPOCH": "2025-12-20T14:45:59.180256", "MEAN_MOTION": 14.3060282, "ECCENTRICITY": 0.00591779, "INCLINATION": 98.9464, "RA_OF_ASC_NODE": 273.637, "ARG_OF_PERICENTER": 274.1282, "MEAN_ANOMALY": 209.0874, "EPHEMERIS_TYPE": 0, "CLASSIFICATION_TYPE": "U", "NORAD_CAT_ID": 29784, "ELEMENT_SET_NO": 999, "REV_AT_EPOCH": 98472, "BSTAR": 0.00033449301, "MEAN_MOTION_DOT": 8.43e-06, "MEAN_MOTION_DDOT": 0}, "tle": {"line1": "1 29784U 99025CA  25354.61526829  .00000843  00000+0  33449-3 0  9993", "line2": "2 29784  98.9464 273.6370 0059177 274.1282 209.0874 14.30602820984721"}}, "geometry": {"type": "Point", "coordinates": [-88.44574124177511, 15.00903554399538]}}, {"type": "Feature", "properties": {"norad_id": 29786, "name": "FENGYUN 1C DEB", "group": "fengyun-1c-debris", "lat": 39.544282285136674, "lon": 4.618721144104096, "alt_km": 887.4207586850798, "timestamp": "2025-12-20T22:39:10.898192+00:00", "meta": {"OBJECT_NAME": "FENGYUN 1C DEB", "OBJECT_ID": "1999-025CC", "EPOCH": "2025-12-20T07:26:13.056576", "MEAN_MOTION": 14.09089225, "ECCENTRICITY": 0.0076852, "INCLINATION": 98.735, "RA_OF_ASC_NODE": 11.2967, "ARG_OF_PERICENTER": 281.3617, "MEAN_ANOMALY": 143.7369, "EPHEMERIS_TYPE": 0, "CLASSIFICATION_TYPE": "U", "NORAD_CAT_ID": 29786, "ELEMENT_SET_NO": 999, "REV_AT_EPOCH": 97267, "BSTAR": 9.4159355e-05, "MEAN_MOTION_DOT": 1.24e-06, "MEAN_MOTION_DDOT": 0}, "tle": {"line1": "1 29786U 99025CC  25354.30987334  .00000124  00000+0  94159-4 0  9991", "line2": "2 29786  98.7350  11.2967 0076852 281.3617 143.7369 14.09089225972672"}}, "geometry": {"type": "Point", "coordinates": [4.618721144104096, 39.544282285136674]}}, {"type": "Feature", "properties": {"norad_id": 29788, "name": "FENGYUN 1C DEB", "group": "fengyun-1c-debris", "lat": 66.06046700780993, "lon": -93.03119345302366, "alt_km": 780.1638990616912, "timestamp": "2025-12-20T22:39:10.898202+00:00", "meta": {"OBJECT_NAME": "FENGYUN 1C DEB", "OBJECT_ID": "1999-025CE", "EPOCH": "2025-12-20T03:54:28.795392", "MEAN_MOTION": 14.26024183, "ECCENTRICITY": 0.00431637, "INCLINATION": 98.7839, "RA_OF_ASC_NODE": 65.8045, "ARG_OF_PERICENTER": 168.3859, "MEAN_ANOMALY": 256.9601, "EPHEMERIS_TYPE": 0, "CLASSIFICATION_TYPE": "U", "NORAD_CAT_ID": 29788, "ELEMENT_SET_NO": 999, "REV_AT_EPOCH": 97461, "BSTAR": 0.001086049, "MEAN_MOTION_DOT": 2.574e-05, "MEAN_MOTION_DDOT": 0}, "tle": {"line1": "1 29788U 99025CE  25354.16283328  .00002574  00000+0  10860-2 0  9995", "line2": "2 29788  98.7839  65.8045 0043163 168.3859 256.9601 14.26024183974612"}}, "geometry": {"type": "Point", "coordinates": [-93.03119345302366, 66.06046700780993]}}, {"type": "Feature", "properties": {"norad_id": 29789, "name": "FENGYUN 1C DEB", "group": "fengyun-1c-debris", "lat": -54.26519754653222, "lon": -169.2223153656908, "alt_km": 907.7068059460125, "timestamp": "2025-12-20T22:39:10.898221+00:00", "meta": {"OBJECT_NAME": "FENGYUN 1C DEB", "OBJECT_ID": "1999-025CF", "EPOCH": "2025-12-20T02:17:41.484192", "MEAN_MOTION": 13.54256892, "ECCENTRICITY": 0.02983207, "INCLINATION": 99.4513, "RA_OF_ASC_NODE": 176.5799, "ARG_OF_PERICENTER": 260.2393, "MEAN_ANOMALY": 228.6184, "EPHEMERIS_TYPE": 0, "CLASSIFICATION_TYPE": "U", "NORAD_CAT_ID": 29789, "ELEMENT_SET_NO": 999, "REV_AT_EPOCH": 93087, "BSTAR": 0.0010796443, "MEAN_MOTION_DOT": 9.31e-06, "MEAN_MOTION_DDOT": 0}, "tle": {"line1": "1 29789U 99025CF  25354.09561903  .00000931  00000+0  10796-2 0  9999", "line2": "2 29789  99.4513 176.5799 0298320 260.2393 228.6184 13.54256892930874"}}, "geometry": {"type": "Point", "coordinates": [-169.2223153656908, -54.26519754653222]}}, {"type": "Feature", "properties": {"norad_id": 29790, "name": "FENGYUN 1C DEB", "group": "fengyun-1c-debris", "lat": -33.09709854821214, "lon": 163.38482893976638, "alt_km": 762.953423599658, "timestamp": "2025-12-20T22:39:10.898231+00:00", "meta": {"OBJECT_NAME": "FENGYUN 1C DEB", "OBJECT_ID": "1999-025CG", "EPOCH": "2025-12-20T11:36:18.700992", "MEAN_MOTION": 14.32280157, "ECCENTRICITY": 0.00768476, "INCLINATION": 99.1474, "RA_OF_ASC_NODE": 348.9282, "ARG_OF_PERICENTER": 154.0993, "MEAN_ANOMALY": 206.4067, "EPHEMERIS_TYPE": 0, "CLASSIFICATION_TYPE": "U", "NORAD_CAT_ID": 29790, "ELEMENT_SET_NO": 999, "REV_AT_EPOCH": 98636, "BSTAR": 0.0001961506, "MEAN_MOTION_DOT": 4.98e-06, "MEAN_MOTION_DDOT": 0}, "tle": {"line1": "1 29790U 99025CG  25354.48354978  .00000498  00000+0  19615-3 0  9994", "line2": "2 29790  99.1474 348.9282 0076847 154.0993 206.4067 14.32280157986362"}}, "geometry": {"type": "Point", "coordinates": [163.38482893976638, -33.09709854821214]}}, {"type": "Feature", "properties": {"norad_id": 29791, "name": "FENGYUN 1C DEB", "group": "fengyun-1c-debris", "lat": -10.506738591611713, "lon": 174.5034492083746, "alt_km": 728.7420327467562, "timestamp": "2025-12-20T22:39:10.898240+00:00", "meta": {"OBJECT_NAME": "FENGYUN 1C DEB", "OBJECT_ID": "1999-025CH", "EPOCH": "2025-12-20T10:58:31.520064", "MEAN_MOTION": 14.58345672, "ECCENTRICITY": 0.00413221, "INCLINATION": 99.0358, "RA_OF_ASC_NODE": 355.6662, "ARG_OF_PERICENTER": 39.0657, "MEAN_ANOMALY": 118.2144, "EPHEMERIS_TYPE": 0, "CLASSIFICATION_TYPE": "U", "NORAD_CAT_ID": 29791, "ELEMENT_SET_NO": 999, "REV_AT_EPOCH": 98958, "BSTAR": 0.00097912934, "MEAN_MOTION_DOT": 4.532e-05, "MEAN_MOTION_DDOT": 0}, "tle": {"line1": "1 29791U 99025CH  25354.45730926  .00004532  00000+0  97913-3 0  9993", "line2": "2 29791  99.0358 355.6662 0041322  39.0657 118.2144 14.58345672989584"}}, "geometry": {"type": "Point", "coordinates": [174.5034492083746, -10.506738591611713]}}, {"type": "Feature", "properties": {"norad_id": 29792, "name": "FENGYUN 1C DEB", "group": "fengyun-1c-debris", "lat": 17.840762521863155, "lon": 42.51464780767531, "alt_km": 807.7464540050405, "timestamp": "2025-12-20T22:39:10.898250+00:00", "meta": {"OBJECT_NAME": "FENGYUN 1C DEB", "OBJECT_ID": "1999-025CJ", "EPOCH": "2025-12-20T02:12:24.581088", "MEAN_MOTION": 14.1518812, "ECCENTRICITY": 0.00476507, "INCLINATION": 98.7567, "RA_OF_ASC_NODE": 44.5219, "ARG_OF_PERICENTER": 14.9573, "MEAN_ANOMALY": 345.2998, "EPHEMERIS_TYPE": 0, "CLASSIFICATION_TYPE": "U", "NORAD_CAT_ID": 29792, "ELEMENT_SET_NO": 999, "REV_AT_EPOCH": 97043, "BSTAR": 0.00098242349, "MEAN_MOTION_DOT": 1.886e-05, "MEAN_MOTION_DDOT": 0}, "tle": {"line1": "1 29792U 99025CJ  25354.09195117  .00001886  00000+0  98242-3 0  9996", "line2": "2 29792  98.7567  44.5219 0047650  14.9573 345.2998 14.15188120970433"}}, "geometry": {"type": "Point", "coordinates": [42.51464780767531, 17.840762521863155]}}, {"type": "Feature", "properties": {"norad_id": 29793, "name": "FENGYUN 1C DEB", "group": "fengyun-1c-debris", "lat": -57.70351249322021, "lon": -173.527197220718, "alt_km": 795.4887588156935, "timestamp": "2025-12-20T22:39:10.898260+00:00", "meta": {"OBJECT_NAME": "FENGYUN 1C DEB", "OBJECT_ID": "1999-025CK", "EPOCH": "2025-12-20T01:15:32.252832", "MEAN_MOTION": 14.01098341, "ECCENTRICITY": 0.01435953, "INCLINATION": 98.3542, "RA_OF_ASC_NODE": 172.2141, "ARG_OF_PERICENTER": 317.4322, "MEAN_ANOMALY": 170.558, "EPHEMERIS_TYPE": 0, "CLASSIFICATION_TYPE": "U", "NORAD_CAT_ID": 29793, "ELEMENT_SET_NO": 999, "REV_AT_EPOCH": 96251, "BSTAR": 0.0007099117, "MEAN_MOTION_DOT": 1.125e-05, "MEAN_MOTION_DDOT": 0}, "tle": {"line1": "1 29793U 99025CK  25354.05245663  .00001125  00000+0  70991-3 0  9992", "line2": "2 29793  98.3542 172.2141 0143595 317.4322 170.5580 14.01098341962510"}}, "geometry": {"type": "Point", "coordinates": [-173.527197220718, -57.70351249322021]}}, {"type": "Feature", "properties": {"norad_id": 29794, "name": "FENGYUN 1C DEB", "group": "fengyun-1c-debris", "lat": 53.11528974181647, "lon": -16.07239952977366, "alt_km": 893.2433400573318, "timestamp": "2025-12-20T22:39:10.898270+00:00", "meta": {"OBJECT_NAME": "FENGYUN 1C DEB", "OBJECT_ID": "1999-025CL", "EPOCH": "2025-12-20T10:23:31.105824", "MEAN_MOTION": 14.09011732, "ECCENTRICITY": 0.01567803, "INCLINATION": 98.1999, "RA_OF_ASC_NODE": 152.384, "ARG_OF_PERICENTER": 18.4198, "MEAN_ANOMALY": 35.9713, "EPHEMERIS_TYPE": 0, "CLASSIFICATION_TYPE": "U", "NORAD_CAT_ID": 29794, "ELEMENT_SET_NO": 999, "REV_AT_EPOCH": 96956, "BSTAR": 0.0003875228, "MEAN_MOTION_DOT": 7.14e-06, "MEAN_MOTION_DDOT": 0}, "tle": {"line1": "1 29794U 99025CL  25354.43299891  .00000714  00000+0  38752-3 0  9999", "line2": "2 29794  98.1999 152.3840 0156780  18.4198  35.9713 14.09011732969560"}}, "geometry": {"type": "Point", "coordinates": [-16.07239952977366, 53.11528974181647]}}]}